49305,ONEWEB-0379,2021,109.55,148.0,+,87.91,Active,1,LEO,Russia,UK,Commercial,Communications,Soyuz,1 49305U 21090AC  25063.39112540  .00000084  00000+0  19174-3 0  9990,2 49305  87.9050  23.1121 0001935  84.6940 275.4411 13.14506371165840,13.14506371,0.0001935,LEO
49306,ONEWEB-0380,2021,109.11,148.0,+,87.92,Active,1,LEO,Russia,UK,Commercial,Communications,Soyuz,1 49306U 21090AD  25063.42428256  .00000135  00000+0  30466-3 0  9993,2 49306  87.9188  38.3422 0001727  84.4507 275.6823 13.19723752164466,13.19723752,0.0001727,LEO
49307,ONEWEB-0381,2021,109.03,148.0,+,87.93,Active,1,LEO,Russia,UK,Commercial,Communications,Soyuz,1 49307U 21090AE  25063.39046253  .00000066  00000+0  13057-3 0  9993,2 49307  87.9323   7.9256 0001717  78.8475 281.2851 13.20769863167816,13.20769863,0.0001717,LEO
49308,ONEWEB-0382,2021,109.03,148.0,+,87.93,Active,1,LEO,Russia,UK,Commercial,Communications,Soyuz,1 49308U 21090AF  25063.37784101  .00000040  00000+0  66700-4 0  9999,2 49308  87.9320   7.9234 0001682  91.7299 268.4027 13.20771555167801,13.20771555,0.0001682,LEO
49309,ONEWEB-0383,2021,109.55,148.0,+,87.9,Active,1,LEO,Russia,UK,Commercial,Communications,Soyuz,1 49309U 21090AG  25063.84149168 -.00000149  00000+0 -43730-3 0  9999,2 49309  87.9049  23.0054 0001889  87.1275 273.0071 13.14502728167225,13.14502728,0.0001889,LEO
49310,ONEWEB-0384,2021,109.03,148.0,+,87.93,Active,1,LEO,Russia,UK,Commercial,Communications,Soyuz,1 49310U 21090AH  25063.90493709  .00000090  00000+0  18894-3 0  9997,2 49310  87.9325   7.8345 0001689  97.5439 262.5886 13.20774110169190,13.2077411,0.0001689,LEO
49311,ONEWEB-0385,2021,109.03,148.0,+,87.93,Active,1,LEO,Russia,UK,Commercial,Communications,Soyuz,1 49311U 21090AJ  25063.36995346  .00000043  00000+0  73715-4 0  9994,2 49311  87.9321   7.9412 0001824  85.4753 274.6589 13.20771178167787,13.20771178,0.0001824,LEO
49312,ONEWEB-0386,2021,109.03,148.0,+,87.93,Active,1,LEO,Russia,UK,Commercial,Communications,Soyuz,1 49312U 21090AK  25063.31155600  .00000167  00000+0  38002-3 0  9997,2 49312  87.9315   7.9301 0001772  89.9246 270.2090 13.20771227167791,13.20771227,0.0001772,LEO
